start=new Date('2021-09-18T00:00:00.000Z').valueOf();
sats=[{"ELEMENT_SET_NO":"999","ECCENTRICITY":"0.00069040","MEAN_ANOMALY":"320.6818","REV_AT_EPOCH":"4584","PERIAPSIS":"542.461","MEAN_ELEMENT_THEORY":"SGP4","SEMIMAJOR_AXIS":"6925.378","MEAN_MOTION_DDOT":"0.0000000000000","EPHEMERIS_TYPE":"0","EPOCH":"2021-09-17T17:45:00.668448","OBJECT_NAME":"STARLINK-1837","RA_OF_ASC_NODE":"56.6994","TIME_SYSTEM":"UTC","ARG_OF_PERICENTER":"39.4672","CENTER_NAME":"EARTH","GP_ID":"184912114","REF_FRAME":"TEME","TLE_LINE2":"2 47128  53.0543  56.6994 0006904  39.4672 320.6818 15.06390551 45847","SITE":"AFETR","COUNTRY_CODE":"US","CLASSIFICATION_TYPE":"U","MEAN_MOTION":"15.06390551","NORAD_CAT_ID":"47128","DECAY_DATE":null,"OBJECT_TYPE":"PAYLOAD","TLE_LINE1":"1 47128U 20088G   21260.73959107 -.00000860  00000-0 -38696-4 0  9994","PERIOD":"95.593","RCS_SIZE":"LARGE","INCLINATION":"53.0543","APOAPSIS":"552.024","OBJECT_ID":"2020-088G","FILE":"3118116","BSTAR":"-0.00003869600000","LAUNCH_DATE":"2020-11-25","MEAN_MOTION_DOT":"-0.00000860"},{"MEAN_ELEMENT_THEORY":"SGP4","PERIAPSIS":"546.129","REV_AT_EPOCH":"4572","ECCENTRICITY":"0.00016130","MEAN_ANOMALY":"264.3149","ELEMENT_SET_NO":"999","EPHEMERIS_TYPE":"0","MEAN_MOTION_DDOT":"0.0000000000000","SEMIMAJOR_AXIS":"6925.381","ARG_OF_PERICENTER":"95.8023","RA_OF_ASC_NODE":"66.2811","TIME_SYSTEM":"UTC","OBJECT_NAME":"STARLINK-1838","EPOCH":"2021-09-17T20:01:40.488096","SITE":"AFETR","TLE_LINE2":"2 47129  53.0549  66.2811 0001613  95.8023 264.3149 15.06389296 45729","REF_FRAME":"TEME","GP_ID":"184912364","CENTER_NAME":"EARTH","MEAN_MOTION":"15.06389296","CLASSIFICATION_TYPE":"U","COUNTRY_CODE":"US","TLE_LINE1":"1 47129U 20088H   21260.83449639 -.00001158  00000-0 -58854-4 0  9999","OBJECT_TYPE":"PAYLOAD","DECAY_DATE":null,"NORAD_CAT_ID":"47129","APOAPSIS":"548.363","INCLINATION":"53.0549","RCS_SIZE":"LARGE","PERIOD":"95.593","MEAN_MOTION_DOT":"-0.00001158","LAUNCH_DATE":"2020-11-25","FILE":"3118116","OBJECT_ID":"2020-088H","BSTAR":"-0.00005885400000"},{"APOAPSIS":"548.358","INCLINATION":"53.0562","PERIOD":"95.592","RCS_SIZE":"LARGE","MEAN_MOTION_DOT":"0.00000787","LAUNCH_DATE":"2020-11-25","BSTAR":"0.00007175000000","FILE":"3118116","OBJECT_ID":"2020-088J","MEAN_MOTION":"15.06401555","CLASSIFICATION_TYPE":"U","COUNTRY_CODE":"US","TLE_LINE1":"1 47130U 20088J   21260.88424806  .00000787  00000-0  71750-4 0  9990","OBJECT_TYPE":"PAYLOAD","DECAY_DATE":null,"NORAD_CAT_ID":"47130","ARG_OF_PERICENTER":"84.3900","TIME_SYSTEM":"UTC","RA_OF_ASC_NODE":"86.0545","OBJECT_NAME":"STARLINK-1839","EPOCH":"2021-09-17T21:13:19.032384","SITE":"AFETR","TLE_LINE2":"2 47130  53.0562  86.0545 0001660  84.3900 275.7278 15.06401555 45440","REF_FRAME":"TEME","GP_ID":"184912616","CENTER_NAME":"EARTH","MEAN_ELEMENT_THEORY":"SGP4","PERIAPSIS":"546.059","REV_AT_EPOCH":"4544","MEAN_ANOMALY":"275.7278","ECCENTRICITY":"0.00016600","ELEMENT_SET_NO":"999","MEAN_MOTION_DDOT":"0.0000000000000","EPHEMERIS_TYPE":"0","SEMIMAJOR_AXIS":"6925.344"},{"SITE":"AFETR","REF_FRAME":"TEME","TLE_LINE2":"2 47131  53.0505  45.1562 0007879 287.5184  72.4958 15.40673680 46022","CENTER_NAME":"EARTH","GP_ID":"184912867","ARG_OF_PERICENTER":"287.5184","RA_OF_ASC_NODE":"45.1562","TIME_SYSTEM":"UTC","EPOCH":"2021-09-17T20:47:04.885728","OBJECT_NAME":"STARLINK-1840","EPHEMERIS_TYPE":"0","MEAN_MOTION_DDOT":"0.0000000000000","SEMIMAJOR_AXIS":"6822.257","PERIAPSIS":"438.747","MEAN_ELEMENT_THEORY":"SGP4","REV_AT_EPOCH":"4602","MEAN_ANOMALY":"72.4958","ECCENTRICITY":"0.00078790","ELEMENT_SET_NO":"999","MEAN_MOTION_DOT":"0.00021730","LAUNCH_DATE":"2020-11-25","OBJECT_ID":"2020-088K","FILE":"3118116","BSTAR":"0.00053246000000","APOAPSIS":"449.497","INCLINATION":"53.0505","PERIOD":"93.466","RCS_SIZE":"LARGE","OBJECT_TYPE":"PAYLOAD","TLE_LINE1":"1 47131U 20088K   21260.86602877  .00021730  00000-0  53246-3 0  9995","NORAD_CAT_ID":"47131","DECAY_DATE":null,"MEAN_MOTION":"15.40673680","CLASSIFICATION_TYPE":"U","COUNTRY_CODE":"US"},{"MEAN_MOTION_DOT":"0.00000690","LAUNCH_DATE":"2020-11-25","OBJECT_ID":"2020-088M","FILE":"3118116","BSTAR":"0.00006527000000","APOAPSIS":"548.585","INCLINATION":"53.0566","PERIOD":"95.593","RCS_SIZE":"LARGE","OBJECT_TYPE":"PAYLOAD","TLE_LINE1":"1 47133U 20088M   21260.76077902  .00000690  00000-0  65270-4 0  9994","NORAD_CAT_ID":"47133","DECAY_DATE":null,"MEAN_MOTION":"15.06391922","CLASSIFICATION_TYPE":"U","COUNTRY_CODE":"US","SITE":"AFETR","REF_FRAME":"TEME","TLE_LINE2":"2 47133  53.0566  66.7537 0001945 121.9843 238.1335 15.06391922 45705","CENTER_NAME":"EARTH","GP_ID":"184911615","ARG_OF_PERICENTER":"121.9843","RA_OF_ASC_NODE":"66.7537","TIME_SYSTEM":"UTC","EPOCH":"2021-09-17T18:15:31.307328","OBJECT_NAME":"STARLINK-1843","EPHEMERIS_TYPE":"0","MEAN_MOTION_DDOT":"0.0000000000000","SEMIMAJOR_AXIS":"6925.373","PERIAPSIS":"545.891","MEAN_ELEMENT_THEORY":"SGP4","REV_AT_EPOCH":"4570","MEAN_ANOMALY":"238.1335","ECCENTRICITY":"0.00019450","ELEMENT_SET_NO":"999"},{"MEAN_MOTION_DOT":"0.00000796","LAUNCH_DATE":"2020-11-25","FILE":"3118116","OBJECT_ID":"2020-088N","BSTAR":"0.00007240300000","APOAPSIS":"550.526","INCLINATION":"53.0563","PERIOD":"95.592","RCS_SIZE":"LARGE","OBJECT_TYPE":"PAYLOAD","TLE_LINE1":"1 47134U 20088N   21260.66770120  .00000796  00000-0  72403-4 0  9999","NORAD_CAT_ID":"47134","DECAY_DATE":null,"MEAN_MOTION":"15.06400161","CLASSIFICATION_TYPE":"U","COUNTRY_CODE":"US","SITE":"AFETR","REF_FRAME":"TEME","TLE_LINE2":"2 47134  53.0563  77.0359 0004784 359.1433   0.9547 15.06400161 45553","CENTER_NAME":"EARTH","GP_ID":"184911865","ARG_OF_PERICENTER":"359.1433","RA_OF_ASC_NODE":"77.0359","TIME_SYSTEM":"UTC","EPOCH":"2021-09-17T16:01:29.383680","OBJECT_NAME":"STARLINK-1844","MEAN_MOTION_DDOT":"0.0000000000000","EPHEMERIS_TYPE":"0","SEMIMAJOR_AXIS":"6925.348","PERIAPSIS":"543.900","MEAN_ELEMENT_THEORY":"SGP4","REV_AT_EPOCH":"4555","MEAN_ANOMALY":"0.9547","ECCENTRICITY":"0.00047840","ELEMENT_SET_NO":"999"},{"ECCENTRICITY":"0.00016510","MEAN_ANOMALY":"266.2009","ELEMENT_SET_NO":"999","PERIAPSIS":"546.071","MEAN_ELEMENT_THEORY":"SGP4","REV_AT_EPOCH":"4572","SEMIMAJOR_AXIS":"6925.349","MEAN_MOTION_DDOT":"0.0000000000000","EPHEMERIS_TYPE":"0","RA_OF_ASC_NODE":"66.0375","TIME_SYSTEM":"UTC","EPOCH":"2021-09-17T21:15:58.889664","OBJECT_NAME":"STARLINK-1845","ARG_OF_PERICENTER":"93.9169","CENTER_NAME":"EARTH","GP_ID":"184913116","SITE":"AFETR","REF_FRAME":"TEME","TLE_LINE2":"2 47135  53.0567  66.0375 0001651  93.9169 266.2009 15.06399761 45725","COUNTRY_CODE":"US","MEAN_MOTION":"15.06399761","CLASSIFICATION_TYPE":"U","OBJECT_TYPE":"PAYLOAD","TLE_LINE1":"1 47135U 20088P   21260.88609826  .00000812  00000-0  73398-4 0  9991","NORAD_CAT_ID":"47135","DECAY_DATE":null,"INCLINATION":"53.0567","RCS_SIZE":"LARGE","PERIOD":"95.592","APOAPSIS":"548.358","LAUNCH_DATE":"2020-11-25","FILE":"3118116","OBJECT_ID":"2020-088P","BSTAR":"0.00007339800000","MEAN_MOTION_DOT":"0.00000812"},{"MEAN_ELEMENT_THEORY":"SGP4","PERIAPSIS":"545.916","REV_AT_EPOCH":"4556","ECCENTRICITY":"0.00018990","MEAN_ANOMALY":"266.0851","ELEMENT_SET_NO":"999","EPHEMERIS_TYPE":"0","MEAN_MOTION_DDOT":"0.0000000000000","SEMIMAJOR_AXIS":"6925.366","ARG_OF_PERICENTER":"94.0355","RA_OF_ASC_NODE":"76.6497","TIME_SYSTEM":"UTC","OBJECT_NAME":"STARLINK-1846","EPOCH":"2021-09-17T18:03:34.900128","SITE":"AFETR","TLE_LINE2":"2 47136  53.0537  76.6497 0001899  94.0355 266.0851 15.06394322 45561","REF_FRAME":"TEME","GP_ID":"184913367","CENTER_NAME":"EARTH","MEAN_MOTION":"15.06394322","CLASSIFICATION_TYPE":"U","COUNTRY_CODE":"US","TLE_LINE1":"1 47136U 20088Q   21260.75248727  .00001006  00000-0  86432-4 0  9996","OBJECT_TYPE":"PAYLOAD","DECAY_DATE":null,"NORAD_CAT_ID":"47136","APOAPSIS":"548.546","INCLINATION":"53.0537","PERIOD":"95.593","RCS_SIZE":"LARGE","MEAN_MOTION_DOT":"0.00001006","LAUNCH_DATE":"2020-11-25","FILE":"3118116","BSTAR":"0.00008643200000","OBJECT_ID":"2020-088Q"},{"ELEMENT_SET_NO":"999","MEAN_ANOMALY":"264.7861","ECCENTRICITY":"0.00016900","REV_AT_EPOCH":"4572","MEAN_ELEMENT_THEORY":"SGP4","PERIAPSIS":"546.070","SEMIMAJOR_AXIS":"6925.375","MEAN_MOTION_DDOT":"0.0000000000000","EPHEMERIS_TYPE":"0","OBJECT_NAME":"STARLINK-1849","EPOCH":"2021-09-17T20:49:27.111360","RA_OF_ASC_NODE":"66.1333","TIME_SYSTEM":"UTC","ARG_OF_PERICENTER":"95.3321","GP_ID":"184912115","CENTER_NAME":"EARTH","TLE_LINE2":"2 47137  53.0569  66.1333 0001690  95.3321 264.7861 15.06391386 45727","REF_FRAME":"TEME","SITE":"AFETR","COUNTRY_CODE":"US","CLASSIFICATION_TYPE":"U","MEAN_MOTION":"15.06391386","DECAY_DATE":null,"NORAD_CAT_ID":"47137","TLE_LINE1":"1 47137U 20088R   21260.86767490 -.00000693  00000-0 -27633-4 0  9993","OBJECT_TYPE":"PAYLOAD","PERIOD":"95.593","RCS_SIZE":"LARGE","INCLINATION":"53.0569","APOAPSIS":"548.410","OBJECT_ID":"2020-088R","FILE":"3118116","BSTAR":"-0.00002763300000","LAUNCH_DATE":"2020-11-25","MEAN_MOTION_DOT":"-0.00000693"},{"RA_OF_ASC_NODE":"71.5655","TIME_SYSTEM":"UTC","OBJECT_NAME":"STARLINK-1850","EPOCH":"2021-09-17T18:26:47.338944","ARG_OF_PERICENTER":"91.1465","GP_ID":"184912365","CENTER_NAME":"EARTH","SITE":"AFETR","TLE_LINE2":"2 47138  53.0541  71.5655 0001701  91.1465 268.9719 15.06392871 45640","REF_FRAME":"TEME","ECCENTRICITY":"0.00017010","MEAN_ANOMALY":"268.9719","ELEMENT_SET_NO":"999","MEAN_ELEMENT_THEORY":"SGP4","PERIAPSIS":"546.057","REV_AT_EPOCH":"4564","SEMIMAJOR_AXIS":"6925.370","EPHEMERIS_TYPE":"0","MEAN_MOTION_DDOT":"0.0000000000000","INCLINATION":"53.0541","RCS_SIZE":"LARGE","PERIOD":"95.593","APOAPSIS":"548.413","LAUNCH_DATE":"2020-11-25","FILE":"3118116","OBJECT_ID":"2020-088S","BSTAR":"0.00010464000000","MEAN_MOTION_DOT":"0.00001277","COUNTRY_CODE":"US","MEAN_MOTION":"15.06392871","CLASSIFICATION_TYPE":"U","TLE_LINE1":"1 47138U 20088S   21260.76860346  .00001277  00000-0  10464-3 0  9997","OBJECT_TYPE":"PAYLOAD","DECAY_DATE":null,"NORAD_CAT_ID":"47138"}];
